$$SOE
2459580.500000000, A.D. 2022-Jan-01 00:00:00.0000, -5.399827019031827E+08, 4.196839071824860E+07, 2.959565751184933E+07,
2459587.500000000, A.D. 2022-Jan-08 00:00:00.0000, -5.399809396031679E+08, 3.329691191787253E+07, 2.796243891521909E+07,
2459594.500000000, A.D. 2022-Jan-15 00:00:00.0000, -5.398143475946245E+08, 2.461527514730073E+07, 2.632068301595752E+07,
2459601.500000000, A.D. 2022-Jan-22 00:00:00.0000, -5.394823202800212E+08, 1.592610046814971E+07, 2.467085897147790E+07,
2459608.500000000, A.D. 2022-Jan-29 00:00:00.0000, -5.389842788823371E+08, 7.232033013000252E+06, 2.301344140438188E+07,
2459615.500000000, A.D. 2022-Feb-05 00:00:00.0000, -5.383196742635682E+08, -1.464257325365325E+06, 2.134891064329826E+07,
2459622.500000000, A.D. 2022-Feb-12 00:00:00.0000, -5.374879876046015E+08, -1.016007727679002E+07, 1.967775267923690E+07,
2459629.500000000, A.D. 2022-Feb-19 00:00:00.0000, -5.364887302707204E+08, -1.885271027977186E+07, 1.800045915230352E+07,
2459636.500000000, A.D. 2022-Feb-26 00:00:00.0000, -5.353214441737629E+08, -2.753941599473237E+07, 1.631752742957772E+07,
2459643.500000000, A.D. 2022-Mar-05 00:00:00.0000, -5.339857024719595E+08, -3.621742986255302E+07, 1.462946070868414E+07,
2459650.500000000, A.D. 2022-Mar-12 00:00:00.0000, -5.324811103859407E+08, -4.488396277523214E+07, 1.293676812089182E+07,
2459657.500000000, A.D. 2022-Mar-19 00:00:00.0000, -5.308073060603084E+08, -5.353620083199716E+07, 1.123996482905899E+07,
2459664.500000000, A.D. 2022-Mar-26 00:00:00.0000, -5.289639614493050E+08, -6.217130518826422E+07, 9.539572117422983E+06,
2459671.500000000, A.D. 2022-Apr-02 00:00:00.0000, -5.269507831600655E+08, -7.078641205451442E+07, 7.836117461990669E+06,
2459678.500000000, A.D. 2022-Apr-09 00:00:00.0000, -5.247675129826266E+08, -7.937863284122533E+07, 6.130134556534663E+06,
2459685.500000000, A.D. 2022-Apr-16 00:00:00.0000, -5.224139277503897E+08, -8.794505379669937E+07, 4.422163314491719E+06,
2459692.500000000, A.D. 2022-Apr-23 00:00:00.0000, -5.198898398003588E+08, -9.648273405480070E+07, 2.712750051399108E+06,
2459699.500000000, A.D. 2022-Apr-30 00:00:00.0000, -5.171950999042633E+08, -1.049887043397430E+08, 1.002447835556157E+06,
2459706.500000000, A.D. 2022-May-07 00:00:00.0000, -5.143295996097503E+08, -1.134599683031814E+08, -7.081834356515855E+05,
2459713.500000000, A.D. 2022-May-14 00:00:00.0000, -5.112932716033035E+08, -1.218935034562993E+08, -2.418577113181330E+06,
2459720.500000000, A.D. 2022-May-21 00:00:00.0000, -5.080860901257994E+08, -1.302862609394616E+08, -4.128159779453799E+06,
2459727.500000000, A.D. 2022-May-28 00:00:00.0000, -5.047080719197887E+08, -1.386351650903471E+08, -5.836351171935596E+06,
2459734.500000000, A.D. 2022-Jun-04 00:00:00.0000, -5.011592774324062E+08, -1.469371131255734E+08, -7.542564098546937E+06,
2459741.500000000, A.D. 2022-Jun-11 00:00:00.0000, -4.974398121302672E+08, -1.551889749355028E+08, -9.246204358343370E+06,
2459748.500000000, A.D. 2022-Jun-18 00:00:00.0000, -4.935498278883464E+08, -1.633875929807303E+08, -1.094667067026806E+07,
2459755.500000000, A.D. 2022-Jun-25 00:00:00.0000, -4.894895244238590E+08, -1.715297823253322E+08, -1.264335461570863E+07,
2459762.500000000, A.D. 2022-Jul-02 00:00:00.0000, -4.852591506414784E+08, -1.796123308746926E+08, -1.433564061284781E+07,
2459769.500000000, A.D. 2022-Jul-09 00:00:00.0000, -4.808590054999112E+08, -1.876319996431357E+08, -1.602290594445566E+07,
2459776.500000000, A.D. 2022-Jul-16 00:00:00.0000, -4.762894384550493E+08, -1.955855219708877E+08, -1.770452074586497E+07,
2459783.500000000, A.D. 2022-Jul-23 00:00:00.0000, -4.715508516778858E+08, -2.034696016154246E+08, -1.937984774543208E+07,
2459790.500000000, A.D. 2022-Jul-30 00:00:00.0000, -4.666437039635832E+08, -2.112809130746682E+08, -2.104824203969027E+07,
2459797.500000000, A.D. 2022-Aug-06 00:00:00.0000, -4.615685127341793E+08, -2.190161034971820E+08, -2.270905118075250E+07,
2459804.500000000, A.D. 2022-Aug-13 00:00:00.0000, -4.563258549583476E+08, -2.266717934273865E+08, -2.436161527562287E+07,
2459811.500000000, A.D. 2022-Aug-20 00:00:00.0000, -4.509163685566781E+08, -2.342445768920193E+08, -2.600526699485907E+07,
2459818.500000000, A.D. 2022-Aug-27 00:00:00.0000, -4.453407542236137E+08, -2.417310215581490E+08, -2.763933155662797E+07,
2459825.500000000, A.D. 2022-Sep-03 00:00:00.0000, -4.395997774179876E+08, -2.491276690774226E+08, -2.926312671850961E+07,
2459832.500000000, A.D. 2022-Sep-10 00:00:00.0000, -4.336942704320864E+08, -2.564310355966820E+08, -3.087596278402282E+07,
2459839.500000000, A.D. 2022-Sep-17 00:00:00.0000, -4.276251345096080E+08, -2.636376124406779E+08, -3.247714262745921E+07,
2459846.500000000, A.D. 2022-Sep-24 00:00:00.0000, -4.213933419515772E+08, -2.707438670218713E+08, -3.406596174758095E+07,
2459853.500000000, A.D. 2022-Oct-01 00:00:00.0000, -4.149999379695825E+08, -2.777462440038822E+08, -3.564170837500997E+07,
2459860.500000000, A.D. 2022-Oct-08 00:00:00.0000, -4.084460418781993E+08, -2.846411662007397E+08, -3.720366362909530E+07,
2459867.500000000, A.D. 2022-Oct-15 00:00:00.0000, -4.017328485571026E+08, -2.914250340167279E+08, -3.875110154190975E+07,
2459874.500000000, A.D. 2022-Oct-22 00:00:00.0000, -3.948616323624789E+08, -2.980942251148233E+08, -4.028328888803798E+07,
2459881.500000000, A.D. 2022-Oct-29 00:00:00.0000, -3.878337509881228E+08, -3.046450969118535E+08, -4.179948526248024E+07,
2459888.500000000, A.D. 2022-Nov-05 00:00:00.0000, -3.806506471749437E+08, -3.110739891634943E+08, -4.329894337636265E+07,
2459895.500000000, A.D. 2022-Nov-12 00:00:00.0000, -3.733138502302013E+08, -3.173772253757187E+08, -4.478090928754336E+07,
2459902.500000000, A.D. 2022-Nov-19 00:00:00.0000, -3.658249780713300E+08, -3.235511140016444E+08, -4.624462257904655E+07,
2459909.500000000, A.D. 2022-Nov-26 00:00:00.0000, -3.581857395280690E+08, -3.295919498273686E+08, -4.768931654312140E+07,
2459916.500000000, A.D. 2022-Dec-03 00:00:00.0000, -3.503979367338490E+08, -3.354960155651675E+08, -4.911421838866121E+07,
2459923.500000000, A.D. 2022-Dec-10 00:00:00.0000, -3.424634675584007E+08, -3.412595836417445E+08, -5.051854947621846E+07,
2459930.500000000, A.D. 2022-Dec-17 00:00:00.0000, -3.343843280538911E+08, -3.468789182120875E+08, -5.190152558634941E+07,
2459937.500000000, A.D. 2022-Dec-24 00:00:00.0000, -3.261626148012394E+08, -3.523502774698354E+08, -5.326235723794153E+07,
2459944.500000000, A.D. 2022-Dec-31 00:00:00.0000, -3.178005267940500E+08, -3.576699161515635E+08, -5.460025008167605E+07,
2459951.500000000, A.D. 2023-Jan-07 00:00:00.0000, -3.093003667316768E+08, -3.628340872774111E+08, -5.591440530228996E+07,
2459958.500000000, A.D. 2023-Jan-14 00:00:00.0000, -3.006645436816330E+08, -3.678390426358631E+08, -5.720401980959831E+07,
2459965.500000000, A.D. 2023-Jan-21 00:00:00.0000, -2.918955777484754E+08, -3.726810351905278E+08, -5.846828641952355E+07,
2459972.500000000, A.D. 2023-Jan-28 00:00:00.0000, -2.829961030739663E+08, -3.773563236105951E+08, -5.970639437895405E+07,
2459979.500000000, A.D. 2023-Feb-04 00:00:00.0000, -2.739688693700404E+08, -3.818611759028081E+08, -6.091752996920326E+07,
2459986.500000000, A.D. 2023-Feb-11 00:00:00.0000, -2.648167437716486E+08, -3.861918723428771E+08, -6.210087704026687E+07,
2459993.500000000, A.D. 2023-Feb-18 00:00:00.0000, -2.555427130633273E+08, -3.903447085333682E+08, -6.325561753827582E+07,
2460000.500000000, A.D. 2023-Feb-25 00:00:00.0000, -2.461498860063520E+08, -3.943159987537788E+08, -6.438093206442818E+07,
2460007.500000000, A.D. 2023-Mar-04 00:00:00.0000, -2.366414956534098E+08, -3.981020795881116E+08, -6.547600047429335E+07,
2460014.500000000, A.D. 2023-Mar-11 00:00:00.0000, -2.270209016110462E+08, -4.016993138334624E+08, -6.654000252116027E+07,
2460021.500000000, A.D. 2023-Mar-18 00:00:00.0000, -2.172915921913069E+08, -4.051040947425697E+08, -6.757211855278710E+07,
2460028.500000000, A.D. 2023-Mar-25 00:00:00.0000, -2.074571862370956E+08, -4.083128506503215E+08, -6.857153028491592E+07,
2460035.500000000, A.D. 2023-Apr-01 00:00:00.0000, -1.975214341838406E+08, -4.113220495929301E+08, -6.953742165908104E+07,
2460042.500000000, A.D. 2023-Apr-08 00:00:00.0000, -1.874882189592056E+08, -4.141282026959798E+08, -7.046897962873137E+07,
2460049.500000000, A.D. 2023-Apr-15 00:00:00.0000, -1.773615590430153E+08, -4.167278674376128E+08, -7.136539475010684E+07,
2460056.500000000, A.D. 2023-Apr-22 00:00:00.0000, -1.671456118624021E+08, -4.191176538390149E+08, -7.222586199380207E+07,
2460063.500000000, A.D. 2023-Apr-29 00:00:00.0000, -1.568446747716300E+08, -4.212942313299764E+08, -7.304958184464324E+07,
2460070.500000000, A.D. 2023-May-06 00:00:00.0000, -1.464631853614369E+08, -4.232543345075951E+08, -7.383576138353464E+07,
2460077.500000000, A.D. 2023-May-13 00:00:00.0000, -1.360057220585412E+08, -4.249947686789377E+08, -7.458361533503762E+07,
2460084.500000000, A.D. 2023-May-20 00:00:00.0000, -1.254770047642478E+08, -4.265124156745340E+08, -7.529236714239007E+07,
2460091.500000000, A.D. 2023-May-27 00:00:00.0000, -1.148818953209653E+08, -4.278042399566542E+08, -7.596125009001812E+07,
2460098.500000000, A.D. 2023-Jun-03 00:00:00.0000, -1.042253977306690E+08, -4.288672949899393E+08, -7.658950847647452E+07,
2460105.500000000, A.D. 2023-Jun-10 00:00:00.0000, -9.351265808289272E+07, -4.296987298809098E+08, -7.717639884078237E+07,
2460112.500000000, A.D. 2023-Jun-17 00:00:00.0000, -8.274896408469015E+07, -4.302957963381137E+08, -7.772119125471056E+07,
2460119.500000000, A.D. 2023-Jun-24 00:00:00.0000, -7.193974385424460E+07, -4.306558558873998E+08, -7.822317070486528E+07,
2460126.500000000, A.D. 2023-Jul-01 00:00:00.0000, -6.109056370692664E+07, -4.307763865023500E+08, -7.868163851872680E+07,
2460133.500000000, A.D. 2023-Jul-08 00:00:00.0000, -5.020712658984066E+07, -4.306549878131580E+08, -7.909591361177871E+07,
2460140.500000000, A.D. 2023-Jul-15 00:00:00.0000, -3.929527242293370E+07, -4.302893877060526E+08, -7.946533366701081E+07,
$$EOE